[{"OBJECT_NAME":"JILIN-1 07","OBJECT_ID":"2018-008E","EPOCH":"2026-03-09T22:24:26.445888","MEAN_MOTION":15.32987507,"ECCENTRICITY":0.00101791,"INCLINATION":97.1876,"RA_OF_ASC_NODE":91.5817,"ARG_OF_PERICENTER":62.7832,"MEAN_ANOMALY":297.4447,"EPHEMERIS_TYPE":0,"CLASSIFICATION_TYPE":"U","NORAD_CAT_ID":43159,"ELEMENT_SET_NO":999,"REV_AT_EPOCH":44978,"BSTAR":0.00036439521,"MEAN_MOTION_DOT":0.00011559,"MEAN_MOTION_DDOT":0},{"OBJECT_NAME":"STARLINK-32342","OBJECT_ID":"2024-171T","EPOCH":"2026-03-09T22:01:53.770944","MEAN_MOTION":15.30235542,"ECCENTRICITY":9.571e-5,"INCLINATION":53.1604,"RA_OF_ASC_NODE":321.3674,"ARG_OF_PERICENTER":46.0361,"MEAN_ANOMALY":314.0719,"EPHEMERIS_TYPE":0,"CLASSIFICATION_TYPE":"U","NORAD_CAT_ID":61217,"ELEMENT_SET_NO":999,"REV_AT_EPOCH":8331,"BSTAR":-0.00024900234,"MEAN_MOTION_DOT":-7.734e-5,"MEAN_MOTION_DDOT":0}]
